IRIDIUM 179             
1 56730U 23068W   26160.19412079  .00000885  00000+0  11301-3 0  9997
2 56730  86.6786  37.6567 0002397  87.3606 272.7890 14.80236700165186
2023-069A               
1 56731U 23069A   26160.16772525  .00006851  00000+0  16622-3 0  9991
2 56731  40.9945 225.4417 0008130 236.2657 123.7393 15.41301869171817
2023-069B               
1 56732U 23069B   26160.21461091  .00003965  00000+0  24717-3 0  9998
2 56732  41.0078 114.3266 0011288 199.5493 160.4889 15.10458708169021
NEXTSAT-2               
1 56743U 23072A   26160.17881667  .00005882  00000+0  21999-3 0  9993
2 56743  97.5260 357.0937 0006877  57.8560 302.3345 15.27699779168376
SNIPE 4                 
1 56744U 23072B   26160.16826212  .00017578  00000+0  41344-3 0  9999
2 56744  97.5265   5.9211 0005195  10.6234 349.5121 15.42032709168874
SNIPE 2                 
1 56745U 23072C   26160.16951745  .00023460  00000+0  47436-3 0  9995
2 56745  97.5259   8.9113 0005034  42.5067 317.6571 15.46456833169005
2023-072D               
1 56746U 23072D   26160.20869081  .00082282  00000+0  71748-3 0  9992
2 56746  97.4932  15.9588 0000874  71.0394 289.0961 15.68736548169614
2023-072E               
1 56747U 23072E   26160.18150666  .00022909  00000+0  44457-3 0  9999
2 56747  97.5068   9.1173 0004004  35.1306 325.0207 15.47662223169141
2023-072F               
1 56748U 23072F   26160.19350556  .00007543  00000+0  25292-3 0  9994
2 56748  97.5120 358.0851 0006912  54.3980 305.7904 15.31176938168550
2023-072G               
1 56749U 23072G   26160.18906361  .00025949  00000+0  46191-3 0  9996
2 56749  97.4922   7.7256 0003730  34.8798 325.2697 15.50116253169228
KONDOR-FKA NO. 1        
1 56756U 23074A   26160.18708687  .00003053  00000+0  14605-3 0  9994
2 56756  97.4423 354.8637 0001722  90.0113 270.1319 15.19730628168473
ARABSAT-7B (BADR-8)     
1 56757U 23075A   26160.13311762  .00000161  00000+0  00000+0 0  9992
2 56757   0.0758  28.1390 0004787 356.8921 306.4178  1.00274813 11035
NVS-01 (IRNSS-1J)       
1 56759U 23076A   26160.01085382 -.00000318  00000+0  00000+0 0  9993
2 56759   2.1864 244.7331 0003000  39.8873 106.2634  1.00269276 11030
STARLINK-6197           
1 56767U 23078A   26160.18345495  .00015316  00000+0  70447-3 0  9995
2 56767  69.9891 111.5534 0003420 330.4605  29.6371 15.20419267166441
STARLINK-6198           
1 56768U 23078B   26160.19424788 -.00000848  00000+0 -63319-4 0  9997
2 56768  70.0000  93.6066 0002745 269.9635  90.1209 14.98308286166888
STARLINK-6342           
1 56770U 23078D   26160.19484873  .00002415  00000+0  20999-3 0  9997
2 56770  69.9992 133.7416 0003334 264.2022  95.8757 14.98350060165893
STARLINK-6275           
1 56772U 23078F   26160.19053306 -.00000138  00000+0 -37277-5 0  9993
2 56772  69.9995 133.7269 0003546 262.1594  97.9163 14.98329057165896
STARLINK-6296           
1 56773U 23078G   26160.09388138  .00000635  00000+0  61002-4 0  9999
2 56773  70.0004  74.1677 0002930 269.0768  91.0055 14.98329664167359
STARLINK-6190           
1 56774U 23078H   26160.07786875  .00001588  00000+0  14084-3 0  9993
2 56774  69.9988 134.1315 0003434 267.5640  92.5126 14.98342391165878
STARLINK-6292           
1 56775U 23078J   26160.08970686  .00001333  00000+0  11949-3 0  9995
2 56775  70.0001  74.1523 0003069 274.4203  85.6605 14.98326959167350
STARLINK-6274           
1 56776U 23078K   26160.18173832  .00000388  00000+0  40347-4 0  9999
2 56776  70.0004  93.9572 0002644 271.0218  89.0638 14.98330850166879
STARLINK-5582           
1 56777U 23078L   26160.14024742 -.00000351  00000+0 -21628-4 0  9994
2 56777  69.9996 114.0783 0003219 269.5362  90.5428 14.98332144166374
STARLINK-6304           
1 56778U 23078M   26160.17755969  .00000521  00000+0  51421-4 0  9991
2 56778  69.9999  93.9408 0003563 267.4573  92.6178 14.98332807166876
STARLINK-6231           
1 56779U 23078N   26160.08575704  .00000751  00000+0  70701-4 0  9996
2 56779  70.0005  94.0212 0002892 268.0100  92.0728 14.98331354166859
STARLINK-5963           
1 56780U 23078P   26160.13621147 -.00000327  00000+0 -19585-4 0  9991
2 56780  69.9994 113.6838 0003961 265.9886  94.0821 14.98334236166388
STARLINK-5989           
1 56781U 23078Q   26160.18613312  .00000315  00000+0  34198-4 0  9994
2 56781  69.9993 113.8358 0003384 260.8236  99.2540 14.98330747166387
STARLINK-6352           
1 56782U 23078R   26160.17338822  .00000808  00000+0  75484-4 0  9994
2 56782  69.9998  93.9255 0002930 268.8914  91.1909 14.98331533166872
STARLINK-6357           
1 56783U 23078S   26160.09827979  .00000441  00000+0  44747-4 0  9993
2 56783  69.9997  94.0639 0003229 263.7622  96.3169 14.98330719166861
STARLINK-6354           
1 56784U 23078T   26160.10245328  .00000414  00000+0  42476-4 0  9995
2 56784  69.9998  94.0785 0003232 266.8607  93.2182 14.98331702166860
STARLINK-5931           
1 56785U 23078U   26160.19448543 -.00000272  00000+0 -14988-4 0  9990
2 56785  69.9993 113.8653 0003294 261.6112  98.4674 14.98338988167072
