OBJECT_NAME,OBJECT_ID,EPOCH,MEAN_MOTION,ECCENTRICITY,INCLINATION,RA_OF_ASC_NODE,ARG_OF_PERICENTER,MEAN_ANOMALY,EPHEMERIS_TYPE,CLASSIFICATION_TYPE,NORAD_CAT_ID,ELEMENT_SET_NO,REV_AT_EPOCH,BSTAR,MEAN_MOTION_DOT,MEAN_MOTION_DDOT
IRIDIUM 179,2023-068W,2026-06-09T04:39:32.036256,14.80236700,.0002397,86.6786,37.6567,87.3606,272.7890,0,U,56730,999,16518,.11301E-3,.885E-5,0
2023-069A,2023-069A,2026-06-09T04:01:31.461600,15.41301869,.000813,40.9945,225.4417,236.2657,123.7393,0,U,56731,999,17181,.16622E-3,.6851E-4,0
2023-069B,2023-069B,2026-06-09T05:09:02.382624,15.10458708,.0011288,41.0078,114.3266,199.5493,160.4889,0,U,56732,999,16902,.24717E-3,.3965E-4,0
NEXTSAT-2,2023-072A,2026-06-09T04:17:29.760288,15.27699779,.0006877,97.5260,357.0937,57.8560,302.3345,0,U,56743,999,16837,.21999E-3,.5882E-4,0
SNIPE 4,2023-072B,2026-06-09T04:02:17.847168,15.42032709,.0005195,97.5265,5.9211,10.6234,349.5121,0,U,56744,999,16887,.41344E-3,.17578E-3,0
SNIPE 2,2023-072C,2026-06-09T04:04:06.307680,15.46456833,.0005034,97.5259,8.9113,42.5067,317.6571,0,U,56745,999,16900,.47436E-3,.2346E-3,0
2023-072D,2023-072D,2026-06-09T05:00:30.885984,15.68736548,.0000874,97.4932,15.9588,71.0394,289.0961,0,U,56746,999,16961,.71748E-3,.82282E-3,0
2023-072E,2023-072E,2026-06-09T04:21:22.175424,15.47662223,.0004004,97.5068,9.1173,35.1306,325.0207,0,U,56747,999,16914,.44457E-3,.22909E-3,0
2023-072F,2023-072F,2026-06-09T04:38:38.880384,15.31176938,.0006912,97.5120,358.0851,54.3980,305.7904,0,U,56748,999,16855,.25292E-3,.7543E-4,0
2023-072G,2023-072G,2026-06-09T04:32:15.095904,15.50116253,.000373,97.4922,7.7256,34.8798,325.2697,0,U,56749,999,16922,.46191E-3,.25949E-3,0
KONDOR-FKA NO. 1,2023-074A,2026-06-09T04:29:24.305568,15.19730628,.0001722,97.4423,354.8637,90.0113,270.1319,0,U,56756,999,16847,.14605E-3,.3053E-4,0
ARABSAT-7B (BADR-8),2023-075A,2026-06-09T03:11:41.362368,1.00274813,.0004787,0.0758,28.1390,356.8921,306.4178,0,U,56757,999,1103,0,.161E-5,0
NVS-01 (IRNSS-1J),2023-076A,2026-06-09T00:15:37.770048,1.00269276,.0003,2.1864,244.7331,39.8873,106.2634,0,U,56759,999,1103,0,-.318E-5,0
STARLINK-6197,2023-078A,2026-06-09T04:24:10.507680,15.20419267,.000342,69.9891,111.5534,330.4605,29.6371,0,U,56767,999,16644,.70447E-3,.15316E-3,0
STARLINK-6198,2023-078B,2026-06-09T04:39:43.016832,14.98308286,.0002745,70.0000,93.6066,269.9635,90.1209,0,U,56768,999,16688,-.63319E-4,-.848E-5,0
STARLINK-6342,2023-078D,2026-06-09T04:40:34.930272,14.98350060,.0003334,69.9992,133.7416,264.2022,95.8757,0,U,56770,999,16589,.20999E-3,.2415E-4,0
STARLINK-6275,2023-078F,2026-06-09T04:34:22.056384,14.98329057,.0003546,69.9995,133.7269,262.1594,97.9163,0,U,56772,999,16589,-.37277E-5,-.138E-5,0
STARLINK-6296,2023-078G,2026-06-09T02:15:11.351232,14.98329664,.000293,70.0004,74.1677,269.0768,91.0055,0,U,56773,999,16735,.61002E-4,.635E-5,0
STARLINK-6190,2023-078H,2026-06-09T01:52:07.860000,14.98342391,.0003434,69.9988,134.1315,267.5640,92.5126,0,U,56774,999,16587,.14084E-3,.1588E-4,0
STARLINK-6292,2023-078J,2026-06-09T02:09:10.672704,14.98326959,.0003069,70.0001,74.1523,274.4203,85.6605,0,U,56775,999,16735,.11949E-3,.1333E-4,0
STARLINK-6274,2023-078K,2026-06-09T04:21:42.190848,14.98330850,.0002644,70.0004,93.9572,271.0218,89.0638,0,U,56776,999,16687,.40347E-4,.388E-5,0
STARLINK-5582,2023-078L,2026-06-09T03:21:57.377088,14.98332144,.0003219,69.9996,114.0783,269.5362,90.5428,0,U,56777,999,16637,-.21628E-4,-.351E-5,0
STARLINK-6304,2023-078M,2026-06-09T04:15:41.157216,14.98332807,.0003563,69.9999,93.9408,267.4573,92.6178,0,U,56778,999,16687,.51421E-4,.521E-5,0
STARLINK-6231,2023-078N,2026-06-09T02:03:29.408256,14.98331354,.0002892,70.0005,94.0212,268.0100,92.0728,0,U,56779,999,16685,.70701E-4,.751E-5,0
STARLINK-5963,2023-078P,2026-06-09T03:16:08.671008,14.98334236,.0003961,69.9994,113.6838,265.9886,94.0821,0,U,56780,999,16638,-.19585E-4,-.327E-5,0
STARLINK-5989,2023-078Q,2026-06-09T04:28:01.901568,14.98330747,.0003384,69.9993,113.8358,260.8236,99.2540,0,U,56781,999,16638,.34198E-4,.315E-5,0
STARLINK-6352,2023-078R,2026-06-09T04:09:40.742208,14.98331533,.000293,69.9998,93.9255,268.8914,91.1909,0,U,56782,999,16687,.75484E-4,.808E-5,0
STARLINK-6357,2023-078S,2026-06-09T02:21:31.373856,14.98330719,.0003229,69.9997,94.0639,263.7622,96.3169,0,U,56783,999,16686,.44747E-4,.441E-5,0
STARLINK-6354,2023-078T,2026-06-09T02:27:31.963392,14.98331702,.0003232,69.9998,94.0785,266.8607,93.2182,0,U,56784,999,16686,.42476E-4,.414E-5,0
STARLINK-5931,2023-078U,2026-06-09T04:40:03.541152,14.98338988,.0003294,69.9993,113.8653,261.6112,98.4674,0,U,56785,999,16707,-.14988E-4,-.272E-5,0
